[Satellite]
VERSION=1.1
NAME=GORIZONT 21 [-]
NICKNAME=GORIZONT 21 [-]
TLE1=1 20923U 90094A   17186.27231969 -.00000279  00000-0  00000-0 0  9999
TLE2=2 20923  15.0550   5.0247 0006493 206.3123 314.2823  1.00250722 97672
